HAWK-2C                 
1 47502U 21006CT  26068.67595434  .00008129  00000+0  25493-3 0  9997
2 47502  97.2417 114.9961 0006943 184.0877 176.0310 15.33286436284247
STARLINK-35425          
1 65874U 25223W   26068.88362698  .00032871  00000+0  11164-2 0  9991
2 65874  53.1607 293.3930 0000546 104.8489 255.2572 15.30220177 24239
